NORAD_CAT_ID,OBJECT_NAME,OBJECT_TYPE,EPOCH,MEAN_MOTION,ECCENTRICITY,INCLINATION,RA_OF_ASC_NODE,ARG_OF_PERICENTER,MEAN_ANOMALY,BSTAR,MEAN_MOTION_DOT,MEAN_MOTION_DDOT,TLE_LINE0,TLE_LINE1,TLE_LINE2,SEMIMAJOR_AXIS,PERIOD,APOGEE,PERIGEE,DECAYED
52274.0,STARLINK-3790,PAYLOAD,2023-02-05 12:58:16,15.08842704,0.0001334,53.2159,133.5864,104.058,256.0561,-7.1596e-05,-1.427e-05,0.0,0 STARLINK-3790,1 52274U 22041P   23036.54046639 -.00001427  00000-0 -71596-4 0  9998,2 52274  53.2159 133.5864 0001334 104.0580 256.0561 15.08842704 45278,6917.872,95.437,540.66,538.814,0.0
52274.0,STARLINK-3790,PAYLOAD,2023-02-06 12:49:02,15.0884811,0.000129,53.216,129.1281,82.5905,277.5233,0.00012636,1.724e-05,0.0,0 STARLINK-3790,1 52274U 22041P   23037.53405873  .00001724  00000-0  12636-3 0  9994,2 52274  53.2160 129.1281 0001290  82.5905 277.5233 15.08848110 44209,6917.856,95.437,540.613,538.828,0.0
52274.0,STARLINK-3790,PAYLOAD,2023-02-06 15:59:48,15.08852577,0.0001237,53.216,128.5317,99.3497,260.7635,0.00015933,2.25e-05,0.0,0 STARLINK-3790,1 52274U 22041P   23037.66653403  .00002250  00000-0  15933-3 0  9990,2 52274  53.2160 128.5317 0001237  99.3497 260.7635 15.08852577 45444,6917.842,95.437,540.563,538.851,0.0
52274.0,STARLINK-3790,PAYLOAD,2023-02-07 11:04:26,15.08847877,0.0001452,53.2167,124.9642,111.0828,249.0319,0.0001553,2.185e-05,0.0,0 STARLINK-3790,1 52274U 22041P   23038.46141794  .00002185  00000-0  15530-3 0  9994,2 52274  53.2167 124.9642 0001452 111.0828 249.0319 15.08847877 45560,6917.856,95.437,540.726,538.717,0.0
52274.0,STARLINK-3790,PAYLOAD,2023-02-08 06:09:05,15.0883117,8.78e-05,53.2164,121.3947,96.1436,263.9657,-0.00014861,-2.651e-05,0.0,0 STARLINK-3790,1 52274U 22041P   23039.25631404 -.00002651  00000-0 -14861-3 0  9990,2 52274  53.2164 121.3947 0000878  96.1436 263.9657 15.08831170 45687,6917.907,95.438,540.38,539.165,0.0
52274.0,STARLINK-3790,PAYLOAD,2023-02-08 12:30:37,15.08843,0.0001194,53.218,120.2119,94.7625,265.3504,9.5065e-06,-1.37e-06,0.0,0 STARLINK-3790,1 52274U 22041P   23039.52126471 -.00000137  00000-0  95065-5 0  9996,2 52274  53.2180 120.2119 0001194  94.7625 265.3504 15.08843000 45727,6917.871,95.437,540.562,538.91,0.0
52274.0,STARLINK-3790,PAYLOAD,2023-02-08 22:02:55,15.08838691,0.0001105,53.2159,118.4238,89.7937,270.3181,-0.00015786,-2.799e-05,0.0,0 STARLINK-3790,1 52274U 22041P   23039.91870127 -.00002799  00000-0 -15786-3 0  9990,2 52274  53.2159 118.4238 0001105  89.7937 270.3181 15.08838691 44564,6917.884,95.438,540.514,538.985,0.0
52274.0,STARLINK-3790,PAYLOAD,2023-02-09 04:24:29,15.08832476,9.55e-05,53.2167,117.2351,96.5074,263.6027,6.1864e-05,6.97e-06,0.0,0 STARLINK-3790,1 52274U 22041P   23040.18366984  .00000697  00000-0  61864-4 0  9994,2 52274  53.2167 117.2351 0000955  96.5074 263.6027 15.08832476 45825,6917.903,95.438,540.429,539.108,0.0
52274.0,STARLINK-3790,PAYLOAD,2023-02-09 10:46:01,15.08839755,7.34e-05,53.2171,116.0459,75.4551,284.6522,4.6386e-05,4.51e-06,0.0,0 STARLINK-3790,1 52274U 22041P   23040.44862665  .00000451  00000-0  46386-4 0  9990,2 52274  53.2171 116.0459 0000734  75.4551 284.6522 15.08839755 44646,6917.881,95.438,540.254,539.238,0.0
52274.0,STARLINK-3790,PAYLOAD,2023-02-09 12:21:24,15.08839627,0.0001074,53.2171,115.7484,96.5241,263.5873,0.00010008,1.305e-05,0.0,0 STARLINK-3790,1 52274U 22041P   23040.51486608  .00001305  00000-0  10008-3 0  9997,2 52274  53.2171 115.7484 0001074  96.5241 263.5873 15.08839627 45877,6917.882,95.438,540.49,539.004,0.0
52274.0,STARLINK-3790,PAYLOAD,2023-02-09 21:53:43,15.08837741,9.68e-05,53.2161,113.9625,99.3017,260.8085,-7.1801e-06,-4.02e-06,0.0,0 STARLINK-3790,1 52274U 22041P   23040.91230480 -.00000402  00000-0 -71801-5 0  9995,2 52274  53.2161 113.9625 0000968  99.3017 260.8085 15.08837741 44718,6917.887,95.438,540.422,539.083,0.0
52274.0,STARLINK-3790,PAYLOAD,2023-02-10 04:15:16,15.08828556,0.0001097,53.2163,112.7765,105.6043,254.507,6.987e-05,8.24e-06,0.0,0 STARLINK-3790,1 52274U 22041P   23041.17727188  .00000824  00000-0  69870-4 0  9998,2 52274  53.2163 112.7765 0001097 105.6043 254.5070 15.08828556 44758,6917.915,95.438,540.539,539.021,0.0
52274.0,STARLINK-3790,PAYLOAD,2023-02-10 21:44:30,15.08836842,0.0001073,53.2153,109.5018,97.4608,262.6506,0.00011676,1.571e-05,0.0,0 STARLINK-3790,1 52274U 22041P   23041.90591075  .00001571  00000-0  11676-3 0  9993,2 52274  53.2153 109.5018 0001073  97.4608 262.6506 15.08836842 44864,6917.89,95.438,540.497,539.013,0.0
52274.0,STARLINK-3790,PAYLOAD,2023-02-11 08:52:12,15.08836654,0.000136,53.2149,107.4225,90.5615,269.5533,0.00011116,1.481e-05,0.0,0 STARLINK-3790,1 52274U 22041P   23042.36959468  .00001481  00000-0  11116-3 0  9997,2 52274  53.2149 107.4225 0001360  90.5615 269.5533 15.08836654 44932,6917.891,95.438,540.696,538.815,0.0
52274.0,STARLINK-3790,PAYLOAD,2023-02-11 10:27:35,15.08846333,0.0001473,53.2164,107.1216,126.2489,233.864,0.00011488,1.541e-05,0.0,0 STARLINK-3790,1 52274U 22041P   23042.43582661  .00001541  00000-0  11488-3 0  9991,2 52274  53.2164 107.1216 0001473 126.2489 233.8640 15.08846333 46162,6917.861,95.437,540.745,538.707,0.0
52274.0,STARLINK-3790,PAYLOAD,2023-02-11 21:35:17,15.08844141,8.1e-05,53.2139,105.0421,82.2117,277.8967,0.00012066,1.633e-05,0.0,0 STARLINK-3790,1 52274U 22041P   23042.89950981  .00001633  00000-0  12066-3 0  9990,2 52274  53.2139 105.0421 0000810  82.2117 277.8967 15.08844141 45010,6917.868,95.437,540.293,539.172,0.0
52274.0,STARLINK-3790,PAYLOAD,2023-02-12 03:56:50,15.08833836,0.0001252,53.2145,103.853,86.9677,273.1458,0.0001865,2.681e-05,0.0,0 STARLINK-3790,1 52274U 22041P   23043.16447791  .00002681  00000-0  18650-3 0  9990,2 52274  53.2145 103.8530 0001252  86.9677 273.1458 15.08833836 46279,6917.899,95.438,540.63,538.898,0.0
52274.0,STARLINK-3790,PAYLOAD,2023-02-12 10:18:23,15.08836517,0.0001045,53.2155,102.6618,101.8235,258.2874,0.00025092,3.707e-05,0.0,0 STARLINK-3790,1 52274U 22041P   23043.42943703  .00003707  00000-0  25092-3 0  9991,2 52274  53.2155 102.6618 0001045 101.8235 258.2874 15.08836517 45095,6917.891,95.438,540.479,539.033,0.0
52274.0,STARLINK-3790,PAYLOAD,2023-02-13 10:09:10,15.08840262,0.0001095,53.2151,98.2005,103.0602,257.0513,0.00017986,2.576e-05,0.0,0 STARLINK-3790,1 52274U 22041P   23044.42303528  .00002576  00000-0  17986-3 0  9993,2 52274  53.2151  98.2005 0001095 103.0602 257.0513 15.08840262 46469,6917.88,95.438,540.502,538.987,0.0
52274.0,STARLINK-3790,PAYLOAD,2023-02-13 11:44:32,15.08852054,0.000119,53.2145,97.9036,93.3345,266.7783,0.00021103,3.073e-05,0.0,0 STARLINK-3790,1 52274U 22041P   23044.48926959  .00003073  00000-0  21103-3 0  9997,2 52274  53.2145  97.9036 0001190  93.3345 266.7783 15.08852054 45257,6917.844,95.437,540.532,538.885,0.0
52274.0,STARLINK-3790,PAYLOAD,2023-02-14 02:03:01,15.08835165,0.0001481,53.2143,95.2285,84.8354,275.2807,0.00010207,1.337e-05,0.0,0 STARLINK-3790,1 52274U 22041P   23045.08543930  .00001337  00000-0  10207-3 0  9992,2 52274  53.2143  95.2285 0001481  84.8354 275.2807 15.08835165 46561,6917.895,95.438,540.785,538.736,0.0
52274.0,STARLINK-3790,PAYLOAD,2023-02-14 09:59:57,15.0884395,0.0001038,53.2154,93.7412,91.3322,268.7789,0.00019785,2.863e-05,0.0,0 STARLINK-3790,1 52274U 22041P   23045.41663662  .00002863  00000-0  19785-3 0  9999,2 52274  53.2154  93.7412 0001038  91.3322 268.7789 15.08843950 45391,6917.868,95.437,540.451,539.015,0.0
52274.0,STARLINK-3790,PAYLOAD,2023-02-14 19:32:16,15.08839147,9.99e-05,53.2153,91.957,88.2587,271.8519,5.6216e-05,6.07e-06,0.0,0 STARLINK-3790,1 52274U 22041P   23045.81407783  .00000607  00000-0  56216-4 0  9998,2 52274  53.2153  91.9570 0000999  88.2587 271.8519 15.08839147 45454,6917.883,95.438,540.439,539.057,0.0
52274.0,STARLINK-3790,PAYLOAD,2023-02-15 08:15:21,15.08841196,0.0001048,53.2149,89.5785,102.1665,257.9445,0.00018433,2.647e-05,0.0,0 STARLINK-3790,1 52274U 22041P   23046.34399845  .00002647  00000-0  18433-3 0  9990,2 52274  53.2149  89.5785 0001048 102.1665 257.9445 15.08841196 46753,6917.877,95.437,540.467,539.017,0.0
52274.0,STARLINK-3790,PAYLOAD,2023-02-15 09:50:44,15.08849547,0.0001036,53.2148,89.2811,102.3655,257.7453,0.00029896,4.475e-05,0.0,0 STARLINK-3790,1 52274U 22041P   23046.41023413  .00004475  00000-0  29896-3 0  9999,2 52274  53.2148  89.2811 0001036 102.3655 257.7453 15.08849547 45548,6917.851,95.437,540.433,539.0,0.0
52274.0,STARLINK-3790,PAYLOAD,2023-02-15 19:23:02,15.08854004,9.45e-05,53.2152,87.4977,100.9999,259.1099,0.00034965,5.283e-05,0.0,0 STARLINK-3790,1 52274U 22041P   23046.80767156  .00005283  00000-0  34965-3 0  9992,2 52274  53.2152  87.4977 0000945 100.9999 259.1099 15.08854004 46827,6917.838,95.437,540.356,539.049,0.0
52274.0,STARLINK-3790,PAYLOAD,2023-02-16 09:41:30,15.0886535,9.05e-05,53.215,84.8206,103.9499,256.1594,0.00067667,0.00010505,0.0,0 STARLINK-3790,1 52274U 22041P   23047.40382744  .00010505  00000-0  67667-3 0  9993,2 52274  53.2150  84.8206 0000905 103.9499 256.1594 15.08865350 45692,6917.803,95.436,540.294,539.042,0.0
52274.0,STARLINK-3790,PAYLOAD,2023-02-16 19:13:49,15.08844361,7e-05,53.2144,83.0365,117.387,242.7194,9.869e-05,1.284e-05,0.0,0 STARLINK-3790,1 52274U 22041P   23047.80126980  .00001284  00000-0  98690-4 0  9990,2 52274  53.2144  83.0365 0000700 117.3870 242.7194 15.08844361 46975,6917.867,95.437,540.216,539.248,0.0
52274.0,STARLINK-3790,PAYLOAD,2023-02-17 04:46:09,15.08813298,0.0001255,53.2151,81.2529,110.3008,249.8119,-0.00058735,-9.616e-05,0.0,0 STARLINK-3790,1 52274U 22041P   23048.19872393 -.00009616  00000-0 -58735-3 0  9993,2 52274  53.2151  81.2529 0001255 110.3008 249.8119 15.08813298 47035,6917.962,95.439,540.695,538.959,0.0
52274.0,STARLINK-3790,PAYLOAD,2023-02-17 09:32:19,15.08805811,0.0001421,53.2148,80.3609,102.9823,257.1328,0.0010551,0.00016528,0.0,0 STARLINK-3790,1 52274U 22041P   23048.39744930  .00016528  00000-0  10551-2 0  9991,2 52274  53.2148  80.3609 0001421 102.9823 257.1328 15.08805811 45840,6917.985,95.44,540.833,538.867,0.0
